NORAD_CAT_ID,OBJECT_NAME,OBJECT_TYPE,EPOCH,MEAN_MOTION,ECCENTRICITY,INCLINATION,RA_OF_ASC_NODE,ARG_OF_PERICENTER,MEAN_ANOMALY,BSTAR,MEAN_MOTION_DOT,MEAN_MOTION_DDOT,TLE_LINE0,TLE_LINE1,TLE_LINE2,SEMIMAJOR_AXIS,PERIOD,APOGEE,PERIGEE,DECAYED
53985.0,STARLINK-5147,PAYLOAD,2023-03-12 00:41:50,15.08815015,0.0001556,53.218,83.9823,97.0953,263.0217,-3.5938e-05,-8.59e-06,0.0,0 STARLINK-5147,1 53985U 22125X   23071.02905165 -.00000859  00000-0 -35938-4 0  9999,2 53985  53.2180  83.9823 0001556  97.0953 263.0217 15.08815015 24421,6917.957,95.439,540.898,538.745,0.0
53985.0,STARLINK-5147,PAYLOAD,2023-03-12 10:14:09,15.08836274,0.0003633,53.2167,82.2011,94.6144,265.5263,0.00071355,0.00011086,0.0,0 STARLINK-5147,1 53985U 22125X   23071.42649407  .00011086  00000-0  71355-3 0  9991,2 53985  53.2167  82.2011 0003633  94.6144 265.5263 15.08836274 24484,6917.892,95.438,542.27,537.244,0.0
53985.0,STARLINK-5147,PAYLOAD,2023-03-12 11:49:31,15.08861023,0.0001257,53.2185,81.9007,96.6738,263.4397,0.0014214,0.00022419,0.0,0 STARLINK-5147,1 53985U 22125X   23071.49272461  .00022419  00000-0  14214-2 0  9992,2 53985  53.2185  81.9007 0001257  96.6738 263.4397 15.08861023 24425,6917.816,95.436,540.551,538.812,0.0
53985.0,STARLINK-5147,PAYLOAD,2023-03-13 00:32:36,15.08849665,0.0001365,53.2182,79.5246,85.6261,274.4887,0.00069385,0.00010775,0.0,0 STARLINK-5147,1 53985U 22125X   23072.02264286  .00010775  00000-0  69385-3 0  9990,2 53985  53.2182  79.5246 0001365  85.6261 274.4887 15.08849665 24579,6917.851,95.437,540.66,538.772,0.0
53985.0,STARLINK-5147,PAYLOAD,2023-03-14 00:23:22,15.08852097,0.0001339,53.2191,75.0605,98.5101,261.6043,0.0002094,3.047e-05,0.0,0 STARLINK-5147,1 53985U 22125X   23073.01623761  .00003047  00000-0  20940-3 0  9995,2 53985  53.2191  75.0605 0001339  98.5101 261.6043 15.08852097 24728,6917.843,95.437,540.635,538.782,0.0
53985.0,STARLINK-5147,PAYLOAD,2023-03-14 06:44:55,15.08850005,0.0001244,53.2179,73.8706,90.2098,269.9037,5.3076e-05,5.57e-06,0.0,0 STARLINK-5147,1 53985U 22125X   23073.28119783  .00000557  00000-0  53076-4 0  9998,2 53985  53.2179  73.8706 0001244  90.2098 269.9037 15.08850005 24698,6917.85,95.437,540.575,538.854,0.0
53985.0,STARLINK-5147,PAYLOAD,2023-03-15 03:24:55,15.08865191,0.0001465,53.2185,70.0085,73.1492,286.966,-6.899e-05,-1.387e-05,0.0,0 STARLINK-5147,1 53985U 22125X   23074.14230690 -.00001387  00000-0 -68990-4 0  9990,2 53985  53.2185  70.0085 0001465  73.1492 286.9660 15.08865191 24892,6917.803,95.436,540.682,538.655,0.0
53985.0,STARLINK-5147,PAYLOAD,2023-03-15 11:21:50,15.08877384,0.0001499,53.2189,68.521,80.2974,279.8188,0.00066982,0.00010399,0.0,0 STARLINK-5147,1 53985U 22125X   23074.47350198  .00010399  00000-0  66982-3 0  9991,2 53985  53.2189  68.5210 0001499  80.2974 279.8188 15.08877384 24870,6917.766,95.435,540.668,538.594,0.0
53985.0,STARLINK-5147,PAYLOAD,2023-03-15 22:29:33,15.0884282,0.0002077,53.2188,66.4402,72.1315,287.9903,3.8093e-05,3.18e-06,0.0,0 STARLINK-5147,1 53985U 22125X   23074.93719506  .00000318  00000-0  38093-4 0  9997,2 53985  53.2188  66.4402 0002077  72.1315 287.9903 15.08842820 24941,6917.872,95.437,541.174,538.3,0.0
53985.0,STARLINK-5147,PAYLOAD,2023-03-16 01:40:19,15.08839354,0.0001283,53.2191,65.8449,100.179,259.9347,-0.00024779,-4.229e-05,0.0,0 STARLINK-5147,1 53985U 22125X   23075.06967064 -.00004229  00000-0 -24779-3 0  9998,2 53985  53.2191  65.8449 0001283 100.1790 259.9347 15.08839354 25036,6917.882,95.438,540.635,538.86,0.0
53985.0,STARLINK-5147,PAYLOAD,2023-03-16 08:01:52,15.08846604,9.81e-05,53.2185,64.6564,98.8828,261.2275,0.0018632,0.00029495,0.0,0 STARLINK-5147,1 53985U 22125X   23075.33463148  .00029495  00000-0  18632-2 0  9992,2 53985  53.2185  64.6564 0000981  98.8828 261.2275 15.08846604 25079,6917.86,95.437,540.404,539.047,0.0
53985.0,STARLINK-5147,PAYLOAD,2023-03-16 15:58:48,15.08830779,0.000115,53.2188,63.1687,83.3088,276.8035,0.0015229,0.00024026,0.0,0 STARLINK-5147,1 53985U 22125X   23075.66583451  .00024026  00000-0  15229-2 0  9992,2 53985  53.2188  63.1687 0001150  83.3088 276.8035 15.08830779 25126,6917.909,95.438,540.569,538.978,0.0
53985.0,STARLINK-5147,PAYLOAD,2023-03-16 22:20:21,15.08841806,0.0002002,53.2182,61.9795,77.7074,282.4142,0.00096921,0.00015171,0.0,0 STARLINK-5147,1 53985U 22125X   23075.93079898  .00015171  00000-0  96921-3 0  9997,2 53985  53.2182  61.9795 0002002  77.7074 282.4142 15.08841806 25164,6917.875,95.437,541.125,538.355,0.0
53985.0,STARLINK-5147,PAYLOAD,2023-03-17 07:52:40,15.088339,9.65e-05,53.2178,60.1958,83.915,276.1952,0.0013041,0.00020524,0.0,0 STARLINK-5147,1 53985U 22125X   23076.32824143  .00020524  00000-0  13041-2 0  9991,2 53985  53.2178  60.1958 0000965  83.9150 276.1952 15.08833900 25223,6917.899,95.438,540.432,539.096,0.0
53985.0,STARLINK-5147,PAYLOAD,2023-03-17 15:49:35,15.08839169,0.0001084,53.2176,58.709,90.3065,269.8052,0.0009772,0.00015298,0.0,0 STARLINK-5147,1 53985U 22125X   23076.65944312  .00015298  00000-0  97720-3 0  9997,2 53985  53.2176  58.7090 0001084  90.3065 269.8052 15.08839169 25202,6917.883,95.438,540.498,538.998,0.0
53985.0,STARLINK-5147,PAYLOAD,2023-03-18 06:08:03,15.08854256,0.0001302,53.2181,56.0333,85.9983,274.1158,0.00069003,0.00010715,0.0,0 STARLINK-5147,1 53985U 22125X   23077.25559990  .00010715  00000-0  69003-3 0  9990,2 53985  53.2181  56.0333 0001302  85.9983 274.1158 15.08854256 25368,6917.837,95.437,540.603,538.801,0.0
53985.0,STARLINK-5147,PAYLOAD,2023-03-18 15:40:22,15.08849146,0.0001101,53.2173,54.248,85.3882,274.7236,0.00032669,4.917e-05,0.0,0 STARLINK-5147,1 53985U 22125X   23077.65303856  .00004917  00000-0  32669-3 0  9997,2 53985  53.2173  54.2480 0001101  85.3882 274.7236 15.08849146 25423,6917.852,95.437,540.479,538.956,0.0
53985.0,STARLINK-5147,PAYLOAD,2023-03-18 22:01:55,15.08845816,0.0001476,53.2174,53.0604,81.7514,278.3645,0.00023325,3.427e-05,0.0,0 STARLINK-5147,1 53985U 22125X   23077.91800027  .00003427  00000-0  23325-3 0  9992,2 53985  53.2174  53.0604 0001476  81.7514 278.3645 15.08845816 25396,6917.863,95.437,540.749,538.707,0.0
53985.0,STARLINK-5147,PAYLOAD,2023-03-19 04:23:27,15.08840756,0.0001169,53.2169,51.8682,91.0072,269.1054,0.00015136,2.122e-05,0.0,0 STARLINK-5147,1 53985U 22125X   23078.18296172  .00002122  00000-0  15136-3 0  9994,2 53985  53.2169  51.8682 0001169  91.0072 269.1054 15.08840756 25507,6917.878,95.438,540.552,538.934,0.0
53985.0,STARLINK-5147,PAYLOAD,2023-03-19 07:34:13,15.0884811,0.0001237,53.2173,51.2732,90.3587,269.7547,0.00029383,4.393e-05,0.0,0 STARLINK-5147,1 53985U 22125X   23078.31543960  .00004393  00000-0  29383-3 0  9990,2 53985  53.2173  51.2732 0001237  90.3587 269.7547 15.08848110 25450,6917.856,95.437,540.576,538.865,0.0
53985.0,STARLINK-5147,PAYLOAD,2023-03-19 15:31:09,15.08843541,0.0001424,53.2177,49.7862,96.846,263.2694,0.00016268,2.302e-05,0.0,0 STARLINK-5147,1 53985U 22125X   23078.64664096  .00002302  00000-0  16268-3 0  9996,2 53985  53.2177  49.7862 0001424  96.8460 263.2694 15.08843541 25500,6917.87,95.437,540.72,538.749,0.0
53985.0,STARLINK-5147,PAYLOAD,2023-03-20 07:25:00,15.08852274,0.0001406,53.218,46.8131,98.189,261.9261,0.00037295,5.654e-05,0.0,0 STARLINK-5147,1 53985U 22125X   23079.30903785  .00005654  00000-0  37295-3 0  9997,2 53985  53.2180  46.8131 0001406  98.1890 261.9261 15.08852274 25679,6917.843,95.437,540.681,538.735,0.0
53985.0,STARLINK-5147,PAYLOAD,2023-03-20 15:21:57,15.08836951,0.0001895,53.219,45.329,80.5103,279.6103,6.6223e-05,7.66e-06,0.0,0 STARLINK-5147,1 53985U 22125X   23079.64024527  .00000766  00000-0  66223-4 0  9995,2 53985  53.2190  45.3290 0001895  80.5103 279.6103 15.08836951 25725,6917.89,95.438,541.066,538.444,0.0
53985.0,STARLINK-5147,PAYLOAD,2023-03-21 07:15:48,15.08851818,0.0001538,53.2201,42.3528,93.7943,266.3225,0.00056592,8.733e-05,0.0,0 STARLINK-5147,1 53985U 22125X   23080.30263947  .00008733  00000-0  56592-3 0  9990,2 53985  53.2201  42.3528 0001538  93.7943 266.3225 15.08851818 25829,6917.844,95.437,540.773,538.645,0.0
53985.0,STARLINK-5147,PAYLOAD,2023-03-22 02:20:26,15.08841069,0.0001269,53.2199,38.7837,110.3646,249.7482,0.000317,4.761e-05,0.0,0 STARLINK-5147,1 53985U 22125X   23081.09752496  .00004761  00000-0  31700-3 0  9990,2 53985  53.2199  38.7837 0001269 110.3646 249.7482 15.08841069 25944,6917.877,95.437,540.62,538.864,0.0
53985.0,STARLINK-5147,PAYLOAD,2023-03-22 05:31:12,15.08848353,0.0001433,53.2212,38.1917,113.8401,246.2742,0.00043704,6.676e-05,0.0,0 STARLINK-5147,1 53985U 22125X   23081.23000339  .00006676  00000-0  43704-3 0  9992,2 53985  53.2212  38.1917 0001433 113.8401 246.2742 15.08848353 25891,6917.855,95.437,540.711,538.729,0.0
53985.0,STARLINK-5147,PAYLOAD,2023-03-23 03:46:36,15.08845058,0.000106,53.2201,34.029,81.9903,278.1209,0.001164,0.00018288,0.0,0 STARLINK-5147,1 53985U 22125X   23082.15737249  .00018288  00000-0  11640-2 0  9996,2 53985  53.2201  34.0290 0001060  81.9903 278.1209 15.08845058 26102,6917.865,95.437,540.463,538.997,0.0
53985.0,STARLINK-5147,PAYLOAD,2023-03-24 05:12:45,15.08954898,0.0001039,53.2188,29.2726,97.7709,262.3401,0.0058912,0.00095035,0.0,0 STARLINK-5147,1 53985U 22125X   23083.21719887  .00095035  00000-0  58912-2 0  9990,2 53985  53.2188  29.2726 0001039  97.7709 262.3401 15.08954898 26260,6917.529,95.43,540.113,538.675,0.0
53985.0,STARLINK-5147,PAYLOAD,2023-03-25 03:28:09,15.08853804,0.0001426,53.2176,25.1063,80.3799,279.7354,-3.6421e-06,-3.46e-06,0.0,0 STARLINK-5147,1 53985U 22125X   23084.14455504 -.00000346  00000-0 -36421-5 0  9993,2 53985  53.2176  25.1063 0001426  80.3799 279.7354 15.08853804 26403,6917.838,95.437,540.69,538.717,0.0
53985.0,STARLINK-5147,PAYLOAD,2023-03-25 05:03:32,15.08858367,0.0001195,53.218,24.8114,77.2046,282.908,0.00020386,2.96e-05,0.0,0 STARLINK-5147,1 53985U 22125X   23084.21079495  .00002960  00000-0  20386-3 0  9995,2 53985  53.2180  24.8114 0001195  77.2046 282.9080 15.08858367 26348,6917.824,95.436,540.516,538.863,0.0
